{"type":"FeatureCollection","features":[{"type":"Feature","properties":{"fuente":"parque/.tileset-completo.json","metodo":"huella_tileset.mjs: triángulos no verticales (|nz| >= 0.3) de 3397 hojas, grilla 2 m, mínimo 1 vértices por celda, apertura 1 y cierre 3 celdas, Douglas-Peucker 2.4 m","vertices":113,"area_m2":229472,"tolerancia_m":2.44},"geometry":{"type":"Polygon","coordinates":[[[-74.0914948,4.6531556],[-74.0913326,4.6531915],[-74.0912605,4.6532814],[-74.0910622,4.6532275],[-74.0908459,4.6534251],[-74.0907738,4.6533892],[-74.0907377,4.6532814],[-74.0906296,4.6533532],[-74.0905394,4.6533532],[-74.0904313,4.6532454],[-74.0903592,4.6532993],[-74.090251,4.6532454],[-74.0901609,4.6533173],[-74.0900708,4.6533353],[-74.0899806,4.6534251],[-74.0898905,4.6533892],[-74.0896201,4.653497],[-74.0895841,4.6535329],[-74.0896021,4.6535868],[-74.089548,4.6536407],[-74.0894579,4.6535868],[-74.0893497,4.6536048],[-74.0890793,4.6537126],[-74.0889532,4.6538024],[-74.0888991,4.6537844],[-74.0877815,4.6542336],[-74.0867901,4.6547007],[-74.0866098,4.6547546],[-74.0865377,4.6548085],[-74.0865377,4.6548444],[-74.0864296,4.6548444],[-74.0863214,4.6549522],[-74.0862313,4.6549522],[-74.0861772,4.6550061],[-74.0861411,4.6549882],[-74.086033,4.6550421],[-74.0858167,4.6552936],[-74.0857265,4.6554912],[-74.0857085,4.6556709],[-74.0857085,4.6557607],[-74.0857987,4.6559224],[-74.0866819,4.657234],[-74.0868441,4.6573957],[-74.0868622,4.6574675],[-74.0869343,4.6575035],[-74.0869703,4.6576472],[-74.0870244,4.6576652],[-74.0870424,4.657755],[-74.0872047,4.6579346],[-74.0872227,4.6580065],[-74.0872768,4.6580424],[-74.0874931,4.6584018],[-74.0876373,4.6585814],[-74.0877635,4.6585994],[-74.0877995,4.6587072],[-74.0877815,4.6587431],[-74.0878356,4.658797],[-74.0879077,4.658797],[-74.0879257,4.6588869],[-74.0880158,4.6589587],[-74.0880519,4.6590486],[-74.088106,4.6590306],[-74.088124,4.6588509],[-74.0884124,4.6586533],[-74.0886287,4.6587072],[-74.0886648,4.6587791],[-74.0885927,4.6588509],[-74.0887369,4.6588509],[-74.0887729,4.6589587],[-74.088827,4.6589947],[-74.0888991,4.6590126],[-74.0890613,4.6589048],[-74.0890613,4.658797],[-74.0890974,4.6587611],[-74.0890974,4.6586353],[-74.0890613,4.6585814],[-74.0891154,4.6585275],[-74.0891695,4.6585455],[-74.0891875,4.6583838],[-74.0892236,4.6583838],[-74.0892776,4.658294],[-74.0893497,4.658294],[-74.0893858,4.658258],[-74.0898905,4.657198],[-74.0898905,4.6571621],[-74.0898004,4.6571441],[-74.0897824,4.6570902],[-74.0898364,4.6570363],[-74.0899626,4.6570363],[-74.0901969,4.6565512],[-74.0901248,4.6564434],[-74.0901609,4.6563716],[-74.0902691,4.6563716],[-74.0903412,4.6562458],[-74.0903231,4.6562099],[-74.090251,4.6562099],[-74.090251,4.6560841],[-74.0903051,4.6560302],[-74.0903592,4.6560482],[-74.0903772,4.6561021],[-74.0904133,4.6560841],[-74.090936,4.6549882],[-74.090936,4.6549343],[-74.0910802,4.6546827],[-74.0910802,4.6546288],[-74.0912244,4.6543773],[-74.0912244,4.6543234],[-74.0913686,4.6540719],[-74.0915128,4.6536587],[-74.0914047,4.6535868],[-74.0914227,4.653479],[-74.0914588,4.653479],[-74.0915128,4.6533892],[-74.0914948,4.6531556]]]}}]}
