{"type":"FeatureCollection","features":[{"type":"Feature","properties":{"fuente":"castilla/.tileset-completo.json","metodo":"huella_tileset.mjs: triángulos no verticales (|nz| >= 0.3) de 7067 hojas, grilla 2 m, mínimo 1 vértices por celda, apertura 1 y cierre 3 celdas, Douglas-Peucker 2.4 m","vertices":53,"area_m2":137700,"tolerancia_m":2.44},"geometry":{"type":"Polygon","coordinates":[[[-74.13484,4.6421532],[-74.1346958,4.6421532],[-74.1343353,4.6425844],[-74.1342451,4.6427461],[-74.134137,4.6428359],[-74.1339567,4.6431234],[-74.1338305,4.6432492],[-74.1338125,4.643321],[-74.1337044,4.6434109],[-74.1336323,4.6435546],[-74.1335421,4.6436265],[-74.1332898,4.6440037],[-74.1330194,4.6443271],[-74.132749,4.64492],[-74.132767,4.6450817],[-74.1328752,4.6453153],[-74.1330014,4.645459],[-74.1330374,4.6456207],[-74.1332898,4.6459082],[-74.1335962,4.6458902],[-74.1336863,4.6458004],[-74.1337584,4.6458363],[-74.1338846,4.6458363],[-74.1339026,4.6457465],[-74.1339567,4.6456926],[-74.1340649,4.6457285],[-74.134173,4.6456566],[-74.1342812,4.6456566],[-74.1344074,4.6455848],[-74.1345335,4.6456566],[-74.1360657,4.6452075],[-74.1366425,4.6450099],[-74.1366605,4.64492],[-74.1367146,4.6448841],[-74.1368588,4.644938],[-74.1368949,4.6449021],[-74.1371833,4.6448302],[-74.1373095,4.6447224],[-74.1373816,4.6447583],[-74.1375979,4.6446865],[-74.1376519,4.6445787],[-74.1377601,4.6445427],[-74.1378322,4.6444349],[-74.1378322,4.6441475],[-74.1377601,4.6439678],[-74.1373635,4.6435905],[-74.1367146,4.6431773],[-74.1365704,4.6431234],[-74.1363902,4.6429797],[-74.1361558,4.6429078],[-74.1360837,4.6428],[-74.1355069,4.6424766],[-74.1352546,4.6422969],[-74.13484,4.6421532]]]}}]}
