{"type":"FeatureCollection","features":[{"type":"Feature","properties":{"fuente":"cerinza/.tileset-completo.json","metodo":"huella_tileset.mjs: triángulos no verticales (|nz| >= 0.3) de 6487 hojas, grilla 2 m, mínimo 1 vértices por celda, apertura 1 y cierre 3 celdas, Douglas-Peucker 2.0 m","vertices":64,"area_m2":87696,"tolerancia_m":1.95},"geometry":{"type":"Polygon","coordinates":[[[-72.9484154,5.9546737],[-72.9473496,5.9547096],[-72.9473135,5.9547455],[-72.9470606,5.9547276],[-72.9470606,5.9547455],[-72.9469522,5.9547455],[-72.946898,5.9547994],[-72.9468438,5.9547635],[-72.9467896,5.9547994],[-72.9466812,5.9547815],[-72.9465548,5.9548893],[-72.9464464,5.9551049],[-72.9464464,5.9551588],[-72.9464103,5.9551947],[-72.9464464,5.9556618],[-72.9464645,5.9556618],[-72.9465187,5.9562008],[-72.9465548,5.9562906],[-72.946627,5.9569554],[-72.9466812,5.9570632],[-72.9466632,5.9572069],[-72.9466812,5.9572069],[-72.9466993,5.9574045],[-72.9468077,5.957674],[-72.9470425,5.9579076],[-72.9471509,5.9579435],[-72.9473857,5.9579435],[-72.9473857,5.9579256],[-72.9477831,5.9578717],[-72.9481805,5.9577459],[-72.9481986,5.95771],[-72.948325,5.9576561],[-72.9483431,5.9576201],[-72.9483792,5.9576201],[-72.9483973,5.9575842],[-72.948596,5.9574764],[-72.9486321,5.9574225],[-72.9486683,5.9574225],[-72.9488308,5.9572608],[-72.9488308,5.9572249],[-72.948885,5.9571889],[-72.948885,5.957153],[-72.9489573,5.9570991],[-72.9489573,5.9570632],[-72.9490115,5.9570093],[-72.9490476,5.9568835],[-72.9490476,5.9567937],[-72.9490115,5.9567578],[-72.9490476,5.95665],[-72.9490476,5.9564883],[-72.9490295,5.9564883],[-72.9490476,5.9564344],[-72.9490295,5.9564344],[-72.9489934,5.956075],[-72.9489573,5.9560391],[-72.9489753,5.9558954],[-72.9489573,5.9558954],[-72.948867,5.9551588],[-72.9487405,5.9548713],[-72.9486863,5.9548174],[-72.9486141,5.9547994],[-72.948596,5.9547635],[-72.9485237,5.9547455],[-72.9484876,5.9546916],[-72.9484154,5.9546737]]]}}]}
