{"type":"FeatureCollection","features":[{"type":"Feature","properties":{"fuente":"kennedy-81b/.tileset-completo.json","metodo":"huella_tileset.mjs: triángulos no verticales (|nz| >= 0.3) de 14986 hojas, grilla 2 m, mínimo 1 vértices por celda, apertura 1 y cierre 3 celdas, Douglas-Peucker 2.4 m","vertices":232,"area_m2":318792,"tolerancia_m":2.44},"geometry":{"type":"Polygon","coordinates":[[[-74.1493967,4.637059],[-74.1489821,4.637077],[-74.1488379,4.6371489],[-74.1487658,4.6372387],[-74.1486576,4.6372387],[-74.1485134,4.6373106],[-74.1480087,4.6377597],[-74.1479727,4.6377597],[-74.1478645,4.6378855],[-74.1478285,4.6378855],[-74.1476302,4.638137],[-74.1476302,4.6382448],[-74.1475761,4.6383706],[-74.1475581,4.6387479],[-74.1479186,4.6388197],[-74.1479186,4.6389275],[-74.1480628,4.6389635],[-74.1480808,4.6390533],[-74.1480267,4.6391072],[-74.1479546,4.6391072],[-74.1479907,4.6391611],[-74.1479727,4.639215],[-74.1479186,4.639233],[-74.1478645,4.6391791],[-74.1477924,4.639215],[-74.1478104,4.6392689],[-74.1480087,4.6392689],[-74.1480448,4.6393228],[-74.1480267,4.6393767],[-74.1479727,4.6393946],[-74.1478825,4.6393587],[-74.1477023,4.6394126],[-74.1476302,4.6393407],[-74.1475941,4.6393587],[-74.1476302,4.6394306],[-74.1476843,4.6394306],[-74.1478465,4.6395204],[-74.1478825,4.6395743],[-74.1479727,4.6395923],[-74.1479907,4.6396462],[-74.1479186,4.6397001],[-74.1478825,4.6397899],[-74.1477564,4.6398258],[-74.1477924,4.6399157],[-74.1477023,4.6400414],[-74.1477203,4.6400953],[-74.1476662,4.6401492],[-74.1476482,4.640257],[-74.1475761,4.640293],[-74.1475761,4.6403648],[-74.147522,4.6403828],[-74.147522,4.6406703],[-74.1475581,4.6407062],[-74.147522,4.6407781],[-74.147522,4.6411014],[-74.1477744,4.6414787],[-74.1479366,4.6414787],[-74.1479907,4.6414248],[-74.1480628,4.6414608],[-74.1481169,4.6415686],[-74.1480087,4.6416764],[-74.1480988,4.6416943],[-74.1481349,4.6417482],[-74.1483512,4.6415506],[-74.1484593,4.6415506],[-74.1484593,4.6416404],[-74.1481349,4.6419279],[-74.1481529,4.6419998],[-74.148189,4.6420357],[-74.1482791,4.6420177],[-74.1483332,4.6420537],[-74.1483512,4.6421435],[-74.1483151,4.6421974],[-74.1483512,4.6422333],[-74.1484954,4.6421974],[-74.1486396,4.6420896],[-74.1486937,4.6421076],[-74.1487117,4.6421615],[-74.1485855,4.6422872],[-74.1486036,4.6423771],[-74.1485314,4.6424669],[-74.1485855,4.6425208],[-74.1486576,4.6425208],[-74.1486576,4.6426286],[-74.1487117,4.6426465],[-74.1487297,4.6427184],[-74.1490542,4.6431137],[-74.1491443,4.6430777],[-74.1492344,4.6431316],[-74.1492525,4.6431855],[-74.1491804,4.6432574],[-74.1492164,4.6433293],[-74.1494147,4.6435449],[-74.1494688,4.6435269],[-74.1495048,4.6435628],[-74.1495769,4.6435628],[-74.1495949,4.6436167],[-74.1495228,4.6436886],[-74.1495769,4.6437066],[-74.1495949,4.6437964],[-74.1496851,4.6438683],[-74.1497211,4.6439581],[-74.1499374,4.6441917],[-74.1499915,4.6442995],[-74.1505142,4.6448923],[-74.1505142,4.6449283],[-74.1506224,4.6450181],[-74.1507125,4.6451618],[-74.151073,4.6453774],[-74.1512172,4.6453954],[-74.1514335,4.6452696],[-74.1516138,4.645072],[-74.1516498,4.645072],[-74.1530198,4.6437964],[-74.1530198,4.6437605],[-74.1532902,4.643491],[-74.1534344,4.6432754],[-74.1534704,4.6432035],[-74.1534704,4.6430238],[-74.1533803,4.642916],[-74.1532902,4.6428981],[-74.153164,4.6427723],[-74.1531279,4.6427004],[-74.153164,4.6425567],[-74.1530558,4.642413],[-74.1529477,4.6425028],[-74.1528936,4.6424849],[-74.1528756,4.642431],[-74.1529837,4.6423052],[-74.1529657,4.6422513],[-74.1528936,4.6421974],[-74.1528035,4.6419998],[-74.1526412,4.6419279],[-74.1526232,4.641856],[-74.1525151,4.6417662],[-74.152497,4.6417123],[-74.1523709,4.6417123],[-74.1523168,4.6416045],[-74.1523709,4.6414967],[-74.1523168,4.6414608],[-74.1522086,4.6415147],[-74.1520464,4.6413889],[-74.1520284,4.641335],[-74.1520825,4.6412631],[-74.1519923,4.6412092],[-74.1519383,4.6411014],[-74.1519383,4.6409936],[-74.1518301,4.6408859],[-74.1518481,4.640832],[-74.1519383,4.6407781],[-74.1519202,4.6406703],[-74.1518481,4.6405984],[-74.15174,4.6406343],[-74.1517039,4.6406703],[-74.1517039,4.6407421],[-74.1515777,4.640814],[-74.1514696,4.6407601],[-74.1513434,4.6405804],[-74.1514155,4.6404187],[-74.1513975,4.6403648],[-74.1514696,4.6403109],[-74.1514696,4.640257],[-74.1514335,4.6402391],[-74.1513614,4.6403289],[-74.1512893,4.6403109],[-74.1512353,4.6404008],[-74.1511812,4.6403828],[-74.1511812,4.640257],[-74.1512893,4.640257],[-74.1513074,4.6401492],[-74.1513975,4.6401492],[-74.1514876,4.6400953],[-74.1514696,4.6399875],[-74.1514335,4.6399696],[-74.1513434,4.6400055],[-74.1513254,4.6401133],[-74.1511812,4.6401852],[-74.1511271,4.6401672],[-74.151055,4.6400594],[-74.151019,4.6400594],[-74.1510009,4.6400055],[-74.151055,4.6399157],[-74.1510009,4.6398977],[-74.1509829,4.6398079],[-74.151055,4.639718],[-74.1510009,4.6397001],[-74.1509469,4.639754],[-74.1508928,4.639736],[-74.1508387,4.6396282],[-74.1509108,4.6395743],[-74.1509108,4.6395204],[-74.1507846,4.6393946],[-74.1507486,4.6394126],[-74.1506945,4.6393587],[-74.1507666,4.639215],[-74.1507305,4.6391072],[-74.1508207,4.6390353],[-74.1508027,4.6389814],[-74.1507486,4.6389455],[-74.1507305,4.6388736],[-74.1505863,4.6387658],[-74.1504962,4.6388377],[-74.1504241,4.6388197],[-74.1504061,4.6387658],[-74.1505323,4.638658],[-74.1505142,4.6386221],[-74.1504421,4.6386041],[-74.1504241,4.638658],[-74.1503881,4.638658],[-74.1502979,4.6387658],[-74.1502439,4.6387479],[-74.1502078,4.638658],[-74.1501718,4.638658],[-74.1501537,4.6385862],[-74.1501898,4.6385143],[-74.1502799,4.6384424],[-74.150316,4.6384604],[-74.150352,4.6383885],[-74.1501357,4.6382987],[-74.1499915,4.6382987],[-74.1499735,4.6382448],[-74.1500276,4.638137],[-74.1499915,4.6381011],[-74.1500095,4.6380112],[-74.1499735,4.6379573],[-74.1499915,4.6378675],[-74.1499374,4.6377777],[-74.1499555,4.6377058],[-74.1497211,4.6373824],[-74.1496671,4.6372567],[-74.1495769,4.6372028],[-74.1495409,4.6371309],[-74.1493967,4.637059]]]}}]}
