{"type":"FeatureCollection","features":[{"type":"Feature","properties":{"fuente":"ibague-arboleda/.tileset-completo.json","metodo":"huella_tileset.mjs: triángulos no verticales (|nz| >= 0.3) de 1948 hojas, grilla 2 m, mínimo 1 vértices por celda, apertura 1 y cierre 3 celdas, Douglas-Peucker 2.4 m","vertices":40,"area_m2":101384,"tolerancia_m":2.44},"geometry":{"type":"Polygon","coordinates":[[[-75.1420969,4.3893023],[-75.1416824,4.3893562],[-75.1415563,4.389446],[-75.1414482,4.3896257],[-75.1413761,4.3896796],[-75.141322,4.3897874],[-75.14125,4.3898413],[-75.1411418,4.3900209],[-75.1410698,4.3900748],[-75.1409616,4.3902545],[-75.1404751,4.3908474],[-75.1404391,4.3909372],[-75.1402949,4.3910989],[-75.1402949,4.3911708],[-75.1402409,4.3911887],[-75.1402048,4.3912965],[-75.1400607,4.3914942],[-75.1401147,4.3917098],[-75.140331,4.3919613],[-75.1406193,4.3921589],[-75.1410157,4.3925003],[-75.1411959,4.3925542],[-75.1415383,4.3928776],[-75.1417905,4.3929854],[-75.1418085,4.3930213],[-75.1419707,4.3930213],[-75.1421509,4.3929494],[-75.142187,4.3928596],[-75.142259,4.3928416],[-75.1425293,4.3925542],[-75.1435024,4.3910989],[-75.1436285,4.3907935],[-75.1436285,4.3906498],[-75.1436645,4.3905959],[-75.1436645,4.3903264],[-75.1435204,4.3901826],[-75.1430699,4.3898413],[-75.1429978,4.3898413],[-75.1429077,4.3897874],[-75.1428717,4.3897155],[-75.1420969,4.3893023]]]}}]}
