{"type":"FeatureCollection","features":[{"type":"Feature","properties":{"fuente":"rotonda-kennedy/.tileset-completo.json","metodo":"huella_tileset.mjs: triángulos no verticales (|nz| >= 0.3) de 1017 hojas, grilla 2 m, mínimo 1 vértices por celda, apertura 1 y cierre 3 celdas, Douglas-Peucker 1.6 m","vertices":81,"area_m2":45112,"tolerancia_m":1.56},"geometry":{"type":"Polygon","coordinates":[[[-74.1563518,4.6392751],[-74.1562797,4.6392931],[-74.1562797,4.639311],[-74.1562437,4.639311],[-74.1562076,4.6393469],[-74.1561536,4.6393469],[-74.1561536,4.6393649],[-74.1561175,4.6393649],[-74.1560815,4.6394008],[-74.1560274,4.6394008],[-74.1560274,4.6394188],[-74.1559553,4.6394368],[-74.1559373,4.6394727],[-74.155793,4.6395266],[-74.1555767,4.6397422],[-74.1555767,4.6397781],[-74.1555227,4.6398141],[-74.1555227,4.63985],[-74.1554866,4.639868],[-74.1554866,4.6399039],[-74.1554686,4.6399039],[-74.1554686,4.6399398],[-74.1554325,4.6399758],[-74.1553965,4.6401734],[-74.1553785,4.6401734],[-74.1553424,4.640371],[-74.1553244,4.640371],[-74.1553244,4.64091],[-74.1553424,4.64091],[-74.1553604,4.6409998],[-74.1558111,4.641449],[-74.1558111,4.6414849],[-74.1559733,4.6416466],[-74.1560274,4.6416466],[-74.1560274,4.6416646],[-74.1562257,4.6416646],[-74.1562257,4.6416466],[-74.1565141,4.6416287],[-74.1565141,4.6416107],[-74.1566763,4.6415748],[-74.1567484,4.6415029],[-74.1568205,4.6414849],[-74.1568926,4.6414131],[-74.1569286,4.6414131],[-74.1569827,4.6413592],[-74.1570188,4.6413592],[-74.1570548,4.6413232],[-74.1570548,4.6412873],[-74.1570909,4.6412693],[-74.1570909,4.6412334],[-74.1571269,4.6412154],[-74.1571269,4.6411795],[-74.157163,4.6411615],[-74.157163,4.6411256],[-74.157199,4.6411076],[-74.157199,4.6410717],[-74.1572351,4.6410537],[-74.1572351,4.6410178],[-74.1572711,4.6409998],[-74.1572711,4.6409639],[-74.1573072,4.640946],[-74.1573072,4.64091],[-74.1573432,4.6408741],[-74.1573432,4.6408202],[-74.1573613,4.6408202],[-74.1574153,4.6405327],[-74.1574334,4.6405327],[-74.1574334,4.6402273],[-74.1572531,4.6400656],[-74.1572531,4.6400297],[-74.157181,4.6399578],[-74.157145,4.6399578],[-74.157145,4.6399219],[-74.1566402,4.6394188],[-74.1566042,4.6394188],[-74.1565321,4.639329],[-74.156478,4.639329],[-74.156478,4.639311],[-74.1564239,4.639311],[-74.1564239,4.6392931],[-74.1563518,4.6392931],[-74.1563518,4.6392751]]]}}]}
