{"type":"FeatureCollection","features":[{"type":"Feature","properties":{"fuente":"tintal-slpk/.tileset-completo.json","metodo":"huella_tileset.mjs: triángulos no verticales (|nz| >= 0.3) de 14896 hojas, grilla 2 m, mínimo 1 vértices por celda, apertura 1 y cierre 3 celdas, Douglas-Peucker 2.4 m","vertices":56,"area_m2":262572,"tolerancia_m":2.44},"geometry":{"type":"Polygon","coordinates":[[[-74.1549208,4.6415742],[-74.1544882,4.6418437],[-74.1541096,4.642203],[-74.1541096,4.6422389],[-74.1539294,4.6423467],[-74.1532805,4.6429576],[-74.1531543,4.643245],[-74.1531723,4.6434606],[-74.1533706,4.643802],[-74.1535328,4.6439816],[-74.1535689,4.6441254],[-74.153641,4.6441613],[-74.1536951,4.6442691],[-74.1536951,4.6443589],[-74.1538032,4.6443769],[-74.1538753,4.6445206],[-74.1539294,4.6445566],[-74.1539654,4.6447003],[-74.1540375,4.6447542],[-74.1541096,4.6449518],[-74.1541637,4.6450057],[-74.1541277,4.6450776],[-74.1541457,4.6451315],[-74.1542178,4.6451854],[-74.1542719,4.6452932],[-74.1544161,4.6453471],[-74.1544341,4.6454549],[-74.1544882,4.6455088],[-74.1544702,4.6456884],[-74.1549929,4.6465868],[-74.1565251,4.6488685],[-74.1567233,4.6490841],[-74.1571019,4.6490481],[-74.1572461,4.6489763],[-74.1588684,4.6476468],[-74.1589946,4.6474132],[-74.1589946,4.6470359],[-74.1588864,4.6467844],[-74.1587602,4.6466407],[-74.1587061,4.6464969],[-74.158598,4.6463352],[-74.1585079,4.6462634],[-74.1584718,4.6461556],[-74.1577508,4.6450956],[-74.1576967,4.6450596],[-74.1576787,4.6449878],[-74.1571019,4.6441433],[-74.1566873,4.6436403],[-74.1565251,4.6433888],[-74.156453,4.6433349],[-74.1562907,4.6430833],[-74.1562186,4.6430294],[-74.1561105,4.6428498],[-74.1560384,4.6427959],[-74.1552813,4.6417718],[-74.1551551,4.641646],[-74.1549208,4.6415742]]]}}]}
