{"type":"FeatureCollection","features":[{"type":"Feature","properties":{"fuente":"zipaquira/.tileset-completo.json","metodo":"huella_tileset.mjs: triángulos no verticales (|nz| >= 0.3) de 5113 hojas, grilla 2 m, mínimo 1 vértices por celda, apertura 1 y cierre 3 celdas, Douglas-Peucker 2.0 m","vertices":91,"area_m2":96112,"tolerancia_m":1.95},"geometry":{"type":"Polygon","coordinates":[[[-74.0036065,5.0217261],[-74.0034983,5.02178],[-74.0034081,5.0218698],[-74.0034081,5.0219057],[-74.0033179,5.0219776],[-74.0033179,5.0220135],[-74.0031917,5.0221573],[-74.0031556,5.0222651],[-74.0031195,5.022283],[-74.0029752,5.0225705],[-74.0029392,5.0225885],[-74.0029211,5.0226603],[-74.002831,5.0227681],[-74.0027949,5.0228759],[-74.0027588,5.0228939],[-74.0027408,5.0229658],[-74.0026506,5.0230736],[-74.0025965,5.0232173],[-74.0025244,5.0232892],[-74.0024342,5.0234868],[-74.0023981,5.0235047],[-74.0022538,5.0237922],[-74.0022178,5.0238102],[-74.0021997,5.0239719],[-74.0022358,5.0241156],[-74.0022899,5.0241515],[-74.002362,5.0242953],[-74.0024702,5.0244031],[-74.0025785,5.024457],[-74.0026686,5.0245648],[-74.0027769,5.0246187],[-74.0028851,5.0247444],[-74.0029211,5.0247444],[-74.0030654,5.0248882],[-74.0032097,5.0249241],[-74.0032999,5.024978],[-74.003354,5.02496],[-74.0034081,5.0250139],[-74.0034802,5.0250139],[-74.0035163,5.0250499],[-74.0035885,5.0250499],[-74.0041476,5.0252475],[-74.0043279,5.0252654],[-74.0044902,5.0252115],[-74.0046165,5.0251217],[-74.0046706,5.024996],[-74.0047427,5.0249241],[-74.0047608,5.0248522],[-74.0048149,5.0248163],[-74.0048149,5.0247804],[-74.0049592,5.0246007],[-74.0049772,5.0245288],[-74.0051215,5.0243492],[-74.0051395,5.0242773],[-74.0052477,5.0241515],[-74.0052658,5.0240797],[-74.0053018,5.0240617],[-74.005392,5.023882],[-74.0054642,5.0238102],[-74.0054822,5.0237383],[-74.0055543,5.0236664],[-74.0055724,5.0235946],[-74.0056445,5.0235227],[-74.0056625,5.0234509],[-74.0056986,5.0234329],[-74.0057166,5.0231275],[-74.0056084,5.0230197],[-74.0055724,5.0230197],[-74.0055724,5.0229837],[-74.0055002,5.0229478],[-74.0053559,5.0227861],[-74.0053199,5.0227861],[-74.0052838,5.0227322],[-74.0052477,5.0227322],[-74.0051575,5.0226424],[-74.0050674,5.0226064],[-74.0050313,5.0225525],[-74.004869,5.0224627],[-74.0048329,5.0224088],[-74.0047968,5.0224088],[-74.0047788,5.0223729],[-74.0047427,5.0223729],[-74.0047247,5.0223369],[-74.0045263,5.0222291],[-74.0044902,5.0221752],[-74.0044542,5.0221752],[-74.0044361,5.0221393],[-74.0044001,5.0221393],[-74.0041656,5.0219596],[-74.0040574,5.0219237],[-74.0040393,5.0218878],[-74.0036065,5.0217261]]]}}]}
